OBJECT_NAME,OBJECT_ID,EPOCH,MEAN_MOTION,ECCENTRICITY,INCLINATION,RA_OF_ASC_NODE,ARG_OF_PERICENTER,MEAN_ANOMALY,EPHEMERIS_TYPE,CLASSIFICATION_TYPE,NORAD_CAT_ID,ELEMENT_SET_NO,REV_AT_EPOCH,BSTAR,MEAN_MOTION_DOT,MEAN_MOTION_DDOT
LEMUR-2-CELIJO-SB-PK,2025-276DW,2026-06-15T04:02:54.757248,14.99960172,.00088759,97.5265,237.0118,137.4697,222.7216,0,U,66781,999,2232,.46115214E-3,.5677E-4,0
LEMUR-2-FINNIAN,2025-276DX,2026-06-15T11:30:43.786944,15.00358876,.00088508,97.5285,237.5250,94.4902,265.7333,0,U,66782,999,1974,.46026087E-3,.5726E-4,0
LEMUR-2-STARLIGHT,2025-276DY,2026-06-15T10:25:39.521280,14.99026242,.00152155,97.5271,237.1330,132.8465,227.4040,0,U,66783,999,2993,.35008737E-3,.4198E-4,0
LEMUR-2-TARTIFLETTE,2025-276DZ,2026-06-15T10:23:30.897600,14.99056574,.00139742,97.5278,237.1384,139.1412,221.0862,0,U,66784,999,2993,.35118387E-3,.4213E-4,0
LEMUR-2-VUKASIN,2025-276EA,2026-06-15T10:16:34.008960,15.00351851,.00062049,97.5314,237.4253,128.3505,231.8278,0,U,66785,999,2988,.39289825E-3,.4876E-4,0
LEMUR-2-HOTSPUR-TOM,2025-276EB,2026-06-15T10:12:37.820736,14.98944096,.00155381,97.5269,237.1123,132.7731,227.4803,0,U,66786,999,2986,.44724829E-3,.5369E-4,0
LEMUR-2-MYRA,2025-276EC,2026-06-15T04:37:29.834688,15.00219246,.0016356,97.5221,237.1389,147.9911,212.2310,0,U,66787,999,2991,.49824273E-3,.6193E-4,0
LEMUR-2 FIKRETDENGIZ,2026-004A,2026-06-15T14:06:43.072992,14.88314574,.00099791,97.8008,165.1703,137.8020,222.3966,0,U,67363,999,2304,.3548496E-3,.323E-4,0
TWILIGHT-1 OBJECT B,2026-004B,2026-06-15T14:40:58.690560,14.87697369,.0009832,97.8061,165.2099,128.7119,231.4978,0,U,67364,999,2305,.18041193E-3,.159E-4,0
LEMUR-2-MARIO-SOUSA,2026-004C,2026-06-15T13:43:25.123584,14.88503312,.0009505,97.7985,165.1511,137.9607,222.2340,0,U,67365,999,2305,.35454358E-3,.3243E-4,0
LEMUR-2-SONNENBLUME,2026-004E,2026-06-15T13:40:47.853120,14.88309401,.00090314,97.7980,165.1344,139.7203,220.4685,0,U,67367,999,2305,.24262349E-3,.2191E-4,0
LEMUR-2-WOBLER,2026-004F,2026-06-15T13:31:43.975488,14.88508273,.00094986,97.8034,165.2489,130.0156,230.1896,0,U,67368,999,2305,.31851281E-3,.2908E-4,0
LEMUR-2-GRAM-E-SUE,2026-004H,2026-06-15T13:18:11.819808,14.88465298,.00080955,97.7967,165.1339,140.2904,219.8907,0,U,67370,999,2305,.23956082E-3,.217E-4,0
LEMUR-2-KATIE,2026-004AA,2026-06-15T13:02:21.576192,14.90039237,.00048483,97.8032,165.5770,97.0141,263.1628,0,U,67387,999,2306,.35265654E-3,.3349E-4,0
LEMUR-2-HCS-BAZUS,2026-004AB,2026-06-15T13:01:02.283456,14.90056568,.00044186,97.8016,165.5569,93.4353,266.7370,0,U,67388,999,2306,.52398092E-3,.5007E-4,0
