LEMUR-2-CELIJO-SB-PK    
1 66781U 25276DW  26166.16868932  .00005677  00000+0  46115-3 0  9998
2 66781  97.5265 237.0118 0008875 137.4697 222.7216 14.99960172 22320
LEMUR-2-FINNIAN         
1 66782U 25276DX  26166.47967346  .00005726  00000+0  46026-3 0  9998
2 66782  97.5285 237.5250 0008850  94.4902 265.7333 15.00358876 19743
LEMUR-2-STARLIGHT       
1 66783U 25276DY  26166.43448520  .00004198  00000+0  35009-3 0  9994
2 66783  97.5271 237.1330 0015215 132.8465 227.4040 14.99026242 29936
LEMUR-2-TARTIFLETTE     
1 66784U 25276DZ  26166.43299650  .00004213  00000+0  35118-3 0  9992
2 66784  97.5278 237.1384 0013974 139.1412 221.0862 14.99056574 29938
LEMUR-2-VUKASIN         
1 66785U 25276EA  26166.42817140  .00004876  00000+0  39290-3 0  9992
2 66785  97.5314 237.4253 0006204 128.3505 231.8278 15.00351851 29882
LEMUR-2-HOTSPUR-TOM     
1 66786U 25276EB  26166.42543774  .00005369  00000+0  44725-3 0  9999
2 66786  97.5269 237.1123 0015538 132.7731 227.4803 14.98944096 29863
LEMUR-2-MYRA            
1 66787U 25276EC  26166.19270642  .00006193  00000+0  49824-3 0  9996
2 66787  97.5221 237.1389 0016356 147.9911 212.2310 15.00219246 29910
LEMUR-2 FIKRETDENGIZ    
1 67363U 26004A   26166.58799853  .00003230  00000+0  35485-3 0  9997
2 67363  97.8008 165.1703 0009979 137.8020 222.3966 14.88314574 23041
TWILIGHT-1 OBJECT B     
1 67364U 26004B   26166.61179040  .00001590  00000+0  18041-3 0  9998
2 67364  97.8061 165.2099 0009832 128.7119 231.4978 14.87697369 23056
LEMUR-2-MARIO-SOUSA     
1 67365U 26004C   26166.57181856  .00003243  00000+0  35454-3 0  9996
2 67365  97.7985 165.1511 0009505 137.9607 222.2340 14.88503312 23056
LEMUR-2-SONNENBLUME     
1 67367U 26004E   26166.56999830  .00002191  00000+0  24262-3 0  9992
2 67367  97.7980 165.1344 0009031 139.7203 220.4685 14.88309401 23058
LEMUR-2-WOBLER          
1 67368U 26004F   26166.56370342  .00002908  00000+0  31851-3 0  9992
2 67368  97.8034 165.2489 0009498 130.0156 230.1896 14.88508273 23059
LEMUR-2-GRAM-E-SUE      
1 67370U 26004H   26166.55430347  .00002170  00000+0  23956-3 0  9994
2 67370  97.7967 165.1339 0008095 140.2904 219.8907 14.88465298 23051
LEMUR-2-KATIE           
1 67387U 26004AA  26166.54330528  .00003349  00000+0  35266-3 0  9997
2 67387  97.8032 165.5770 0004848  97.0141 263.1628 14.90039237 23066
LEMUR-2-HCS-BAZUS       
1 67388U 26004AB  26166.54238754  .00005007  00000+0  52398-3 0  9994
2 67388  97.8016 165.5569 0004418  93.4353 266.7370 14.90056568 23062
